{"fetched_at":"2026-07-13T07:48:30.281Z","source":"https://celestrak.org/NORAD/elements/gp.php?NAME=KINEIS&FORMAT=JSON","constellation":"kineis","records":[{"OBJECT_NAME":"KINEIS-1B","OBJECT_ID":"2024-114A","EPOCH":"2026-07-12T20:48:50.487264","CLASSIFICATION_TYPE":"U","MEAN_MOTION":14.80664938,"ECCENTRICITY":0.0003123,"INCLINATION":97.9828,"RA_OF_ASC_NODE":217.9301,"ARG_OF_PERICENTER":43.5605,"MEAN_ANOMALY":316.5853,"EPHEMERIS_TYPE":0,"NORAD_CAT_ID":60079,"ELEMENT_SET_NO":999,"REV_AT_EPOCH":11120,"BSTAR":0.000058077,"MEAN_MOTION_DOT":0.00000393,"MEAN_MOTION_DDOT":0},{"OBJECT_NAME":"KINEIS-1C","OBJECT_ID":"2024-114C","EPOCH":"2026-07-12T19:59:57.854400","CLASSIFICATION_TYPE":"U","MEAN_MOTION":14.8066702,"ECCENTRICITY":0.0002561,"INCLINATION":97.9841,"RA_OF_ASC_NODE":217.7511,"ARG_OF_PERICENTER":97.8603,"MEAN_ANOMALY":262.29,"EPHEMERIS_TYPE":0,"NORAD_CAT_ID":60081,"ELEMENT_SET_NO":999,"REV_AT_EPOCH":11117,"BSTAR":0.000059958,"MEAN_MOTION_DOT":0.00000408,"MEAN_MOTION_DDOT":0},{"OBJECT_NAME":"KINEIS-1D","OBJECT_ID":"2024-114D","EPOCH":"2026-07-12T20:47:58.331904","CLASSIFICATION_TYPE":"U","MEAN_MOTION":14.76361016,"ECCENTRICITY":0.000293,"INCLINATION":97.9878,"RA_OF_ASC_NODE":213.7219,"ARG_OF_PERICENTER":101.9834,"MEAN_ANOMALY":258.1704,"EPHEMERIS_TYPE":0,"NORAD_CAT_ID":60082,"ELEMENT_SET_NO":999,"REV_AT_EPOCH":11091,"BSTAR":0.000059379,"MEAN_MOTION_DOT":0.00000361,"MEAN_MOTION_DDOT":0},{"OBJECT_NAME":"KINEIS-1E","OBJECT_ID":"2024-114E","EPOCH":"2026-07-12T20:25:40.876320","CLASSIFICATION_TYPE":"U","MEAN_MOTION":14.8069193,"ECCENTRICITY":0.0004055,"INCLINATION":97.8943,"RA_OF_ASC_NODE":216.8641,"ARG_OF_PERICENTER":114.5261,"MEAN_ANOMALY":245.6375,"EPHEMERIS_TYPE":0,"NORAD_CAT_ID":60083,"ELEMENT_SET_NO":999,"REV_AT_EPOCH":11118,"BSTAR":0.000070623,"MEAN_MOTION_DOT":0.00000491,"MEAN_MOTION_DDOT":0},{"OBJECT_NAME":"KINEIS-1A","OBJECT_ID":"2024-114F","EPOCH":"2026-07-12T21:13:48.635616","CLASSIFICATION_TYPE":"U","MEAN_MOTION":14.80680463,"ECCENTRICITY":0.0005486,"INCLINATION":97.8917,"RA_OF_ASC_NODE":216.9916,"ARG_OF_PERICENTER":68.1373,"MEAN_ANOMALY":292.0422,"EPHEMERIS_TYPE":0,"NORAD_CAT_ID":60084,"ELEMENT_SET_NO":999,"REV_AT_EPOCH":11119,"BSTAR":0.000064481,"MEAN_MOTION_DOT":0.00000444,"MEAN_MOTION_DDOT":0},{"OBJECT_NAME":"KINEIS-3C","OBJECT_ID":"2024-172A","EPOCH":"2026-07-12T18:17:18.628224","CLASSIFICATION_TYPE":"U","MEAN_MOTION":14.72284795,"ECCENTRICITY":0.0002657,"INCLINATION":98.0442,"RA_OF_ASC_NODE":283.3896,"ARG_OF_PERICENTER":85.9789,"MEAN_ANOMALY":274.1722,"EPHEMERIS_TYPE":0,"NORAD_CAT_ID":61220,"ELEMENT_SET_NO":999,"REV_AT_EPOCH":9683,"BSTAR":0.00013618,"MEAN_MOTION_DOT":0.00000811,"MEAN_MOTION_DDOT":0},{"OBJECT_NAME":"KINEIS-3D","OBJECT_ID":"2024-172B","EPOCH":"2026-07-12T18:07:36.994656","CLASSIFICATION_TYPE":"U","MEAN_MOTION":14.72283003,"ECCENTRICITY":0.0002454,"INCLINATION":98.0428,"RA_OF_ASC_NODE":283.394,"ARG_OF_PERICENTER":86.9433,"MEAN_ANOMALY":273.2055,"EPHEMERIS_TYPE":0,"NORAD_CAT_ID":61221,"ELEMENT_SET_NO":999,"REV_AT_EPOCH":9711,"BSTAR":0.00015263,"MEAN_MOTION_DOT":0.00000914,"MEAN_MOTION_DDOT":0},{"OBJECT_NAME":"KINEIS-3E","OBJECT_ID":"2024-172C","EPOCH":"2026-07-12T04:40:03.405504","CLASSIFICATION_TYPE":"U","MEAN_MOTION":14.72333973,"ECCENTRICITY":0.0001814,"INCLINATION":98.0428,"RA_OF_ASC_NODE":282.8204,"ARG_OF_PERICENTER":90.4732,"MEAN_ANOMALY":269.6683,"EPHEMERIS_TYPE":0,"NORAD_CAT_ID":61222,"ELEMENT_SET_NO":999,"REV_AT_EPOCH":9703,"BSTAR":0.00015732052,"MEAN_MOTION_DOT":0.00000945,"MEAN_MOTION_DDOT":0},{"OBJECT_NAME":"KINEIS-3A","OBJECT_ID":"2024-172D","EPOCH":"2026-07-12T18:57:06.128064","CLASSIFICATION_TYPE":"U","MEAN_MOTION":14.72305452,"ECCENTRICITY":0.0002333,"INCLINATION":98.0425,"RA_OF_ASC_NODE":283.5073,"ARG_OF_PERICENTER":47.1276,"MEAN_ANOMALY":313.0127,"EPHEMERIS_TYPE":0,"NORAD_CAT_ID":61223,"ELEMENT_SET_NO":999,"REV_AT_EPOCH":9654,"BSTAR":0.00016151,"MEAN_MOTION_DOT":0.00000971,"MEAN_MOTION_DDOT":0},{"OBJECT_NAME":"KINEIS-3B","OBJECT_ID":"2024-172E","EPOCH":"2026-07-12T18:32:03.093792","CLASSIFICATION_TYPE":"U","MEAN_MOTION":14.72291587,"ECCENTRICITY":0.0001794,"INCLINATION":98.0418,"RA_OF_ASC_NODE":283.5126,"ARG_OF_PERICENTER":34.2118,"MEAN_ANOMALY":325.9204,"EPHEMERIS_TYPE":0,"NORAD_CAT_ID":61224,"ELEMENT_SET_NO":999,"REV_AT_EPOCH":9711,"BSTAR":0.00016016,"MEAN_MOTION_DOT":0.00000962,"MEAN_MOTION_DDOT":0},{"OBJECT_NAME":"KINEIS-5C","OBJECT_ID":"2024-219A","EPOCH":"2026-07-12T21:14:59.710848","CLASSIFICATION_TYPE":"U","MEAN_MOTION":14.72313092,"ECCENTRICITY":0.0003969,"INCLINATION":97.9063,"RA_OF_ASC_NODE":352.0271,"ARG_OF_PERICENTER":180.1078,"MEAN_ANOMALY":180.013,"EPHEMERIS_TYPE":0,"NORAD_CAT_ID":62081,"ELEMENT_SET_NO":999,"REV_AT_EPOCH":8753,"BSTAR":0.00006266,"MEAN_MOTION_DOT":0.00000348,"MEAN_MOTION_DDOT":0},{"OBJECT_NAME":"KINEIS-5D","OBJECT_ID":"2024-219B","EPOCH":"2026-07-12T20:15:43.467840","CLASSIFICATION_TYPE":"U","MEAN_MOTION":14.72491262,"ECCENTRICITY":0.0005095,"INCLINATION":97.9177,"RA_OF_ASC_NODE":352.051,"ARG_OF_PERICENTER":174.5639,"MEAN_ANOMALY":185.5625,"EPHEMERIS_TYPE":0,"NORAD_CAT_ID":62082,"ELEMENT_SET_NO":999,"REV_AT_EPOCH":8753,"BSTAR":0.00008488,"MEAN_MOTION_DOT":0.0000049,"MEAN_MOTION_DDOT":0},{"OBJECT_NAME":"KINEIS-5E","OBJECT_ID":"2024-219C","EPOCH":"2026-07-12T20:40:56.882208","CLASSIFICATION_TYPE":"U","MEAN_MOTION":14.72297607,"ECCENTRICITY":0.0006585,"INCLINATION":97.9021,"RA_OF_ASC_NODE":352.0996,"ARG_OF_PERICENTER":171.5522,"MEAN_ANOMALY":188.5797,"EPHEMERIS_TYPE":0,"NORAD_CAT_ID":62083,"ELEMENT_SET_NO":999,"REV_AT_EPOCH":8754,"BSTAR":0.000055115,"MEAN_MOTION_DOT":0.000003,"MEAN_MOTION_DDOT":0},{"OBJECT_NAME":"KINEIS-5A","OBJECT_ID":"2024-219D","EPOCH":"2026-07-12T20:09:27.583776","CLASSIFICATION_TYPE":"U","MEAN_MOTION":14.72248375,"ECCENTRICITY":0.0003509,"INCLINATION":97.896,"RA_OF_ASC_NODE":352.3598,"ARG_OF_PERICENTER":207.7291,"MEAN_ANOMALY":152.3731,"EPHEMERIS_TYPE":0,"NORAD_CAT_ID":62084,"ELEMENT_SET_NO":999,"REV_AT_EPOCH":8754,"BSTAR":0.00023554,"MEAN_MOTION_DOT":0.00001439,"MEAN_MOTION_DDOT":0},{"OBJECT_NAME":"KINEIS-5B","OBJECT_ID":"2024-219E","EPOCH":"2026-07-12T20:02:31.787232","CLASSIFICATION_TYPE":"U","MEAN_MOTION":14.7838267,"ECCENTRICITY":0.0002333,"INCLINATION":98.0087,"RA_OF_ASC_NODE":357.5239,"ARG_OF_PERICENTER":150.0674,"MEAN_ANOMALY":210.0671,"EPHEMERIS_TYPE":0,"NORAD_CAT_ID":62085,"ELEMENT_SET_NO":999,"REV_AT_EPOCH":8779,"BSTAR":0.000083094,"MEAN_MOTION_DOT":0.00000553,"MEAN_MOTION_DDOT":0},{"OBJECT_NAME":"KINEIS-2C","OBJECT_ID":"2025-028B","EPOCH":"2026-07-12T17:16:17.804064","CLASSIFICATION_TYPE":"U","MEAN_MOTION":14.73424733,"ECCENTRICITY":0.0004064,"INCLINATION":98.1232,"RA_OF_ASC_NODE":248.1405,"ARG_OF_PERICENTER":166.003,"MEAN_ANOMALY":194.1291,"EPHEMERIS_TYPE":0,"NORAD_CAT_ID":62929,"ELEMENT_SET_NO":999,"REV_AT_EPOCH":7637,"BSTAR":0.00012799,"MEAN_MOTION_DOT":0.00000779,"MEAN_MOTION_DDOT":0}]}
