KINEIS-1B               
1 60079U 24114A   26193.86725101  .00000393  00000+0  58077-4 0  9990
2 60079  97.9828 217.9301 0003123  43.5605 316.5853 14.80664938111207
KINEIS-1C               
1 60081U 24114C   26193.83330850  .00000408  00000+0  59958-4 0  9999
2 60081  97.9841 217.7511 0002561  97.8603 262.2900 14.80667020111172
KINEIS-1D               
1 60082U 24114D   26193.86664736  .00000361  00000+0  59379-4 0  9991
2 60082  97.9878 213.7219 0002930 101.9834 258.1704 14.76361016110915
KINEIS-1E               
1 60083U 24114E   26193.85116755  .00000491  00000+0  70623-4 0  9993
2 60083  97.8943 216.8641 0004055 114.5261 245.6375 14.80691930111186
KINEIS-1A               
1 60084U 24114F   26193.88459069  .00000444  00000+0  64481-4 0  9998
2 60084  97.8917 216.9916 0005486  68.1373 292.0422 14.80680463111190
KINEIS-3C               
1 61220U 24172A   26193.76202116  .00000811  00000+0  13618-3 0  9994
2 61220  98.0442 283.3896 0002657  85.9789 274.1722 14.72284795 96835
KINEIS-3D               
1 61221U 24172B   26193.75528929  .00000914  00000+0  15263-3 0  9999
2 61221  98.0428 283.3940 0002454  86.9433 273.2055 14.72283003 97114
KINEIS-3E               
1 61222U 24172C   26193.19448386  .00000945  00000+0  15732-3 0  9991
2 61222  98.0428 282.8204 0001814  90.4732 269.6683 14.72333973 97032
KINEIS-3A               
1 61223U 24172D   26193.78965426  .00000971  00000+0  16151-3 0  9991
2 61223  98.0425 283.5073 0002333  47.1276 313.0127 14.72305452 96544
KINEIS-3B               
1 61224U 24172E   26193.77225803  .00000962  00000+0  16016-3 0  9999
2 61224  98.0418 283.5126 0001794  34.2118 325.9204 14.72291587 97113
KINEIS-5C               
1 62081U 24219A   26193.88541332  .00000348  00000+0  62660-4 0  9998
2 62081  97.9063 352.0271 0003969 180.1078 180.0130 14.72313092 87533
KINEIS-5D               
1 62082U 24219B   26193.84425310  .00000490  00000+0  84880-4 0  9998
2 62082  97.9177 352.0510 0005095 174.5639 185.5625 14.72491262 87533
KINEIS-5E               
1 62083U 24219C   26193.86176947  .00000300  00000+0  55115-4 0  9999
2 62083  97.9021 352.0996 0006585 171.5522 188.5797 14.72297607 87544
KINEIS-5A               
1 62084U 24219D   26193.83990259  .00001439  00000+0  23554-3 0  9992
2 62084  97.8960 352.3598 0003509 207.7291 152.3731 14.72248375 87540
KINEIS-5B               
1 62085U 24219E   26193.83509013  .00000553  00000+0  83094-4 0  9999
2 62085  98.0087 357.5239 0002333 150.0674 210.0671 14.78382670 87797
KINEIS-2C               
1 62929U 25028B   26193.71965051  .00000779  00000+0  12799-3 0  9993
2 62929  98.1232 248.1405 0004064 166.0030 194.1291 14.73424733 76377
